GLOBALSTAR M045         
1 25676U 99019A   25039.50581118 -.00000071  00000+0  19989-3 0  9999
2 25676  51.9991 312.0407 0000709  25.3754 146.1015 12.27056067177594
GLOBALSTAR M019         
1 25677U 99019B   25039.50725985  .00000063  00000+0  15947-2 0  9991
2 25677  51.9882  73.3433 0001272  79.8893  92.8109 12.13872975169517
GLOBALSTAR M044         
1 25678U 99019C   25039.63566949 -.00000126  00000+0 -58659-3 0  9999
2 25678  51.9998   8.2651 0006407 150.9810  20.0483 11.90247411155990
GLOBALSTAR M042         
1 25679U 99019D   25039.51407742 -.00000064  00000+0  26645-3 0  9992
2 25679  52.0021  54.1996 0002819  39.6946 127.2954 12.22077995169529
GLOBALSTAR M025         
1 25770U 99031A   25039.44512389 -.00000061  00000+0  19525-3 0  9990
2 25770  51.9816  97.5116 0001003 268.3688 104.1586 11.22558947467250
GLOBALSTAR M049         
1 25771U 99031B   25039.54826977 -.00000082  00000+0 -58780-3 0  9993
2 25771  51.9874 125.5715 0004069 151.6779 208.4239 11.12114819103112
GLOBALSTAR M047         
1 25772U 99031C   25039.57337719 -.00000088  00000+0 -52135-3 0  9992
2 25772  51.9823 134.7721 0016416  45.2678 314.9461 11.31925671456546
GLOBALSTAR M052         
1 25773U 99031D   25039.25707900 -.00000082  00000+0 -54918-3 0  9996
2 25773  51.9830 236.7222 0001939 347.2197 184.4024 11.15057769464123
